1 37934U 11069B   19162.80504253 -.00000090  00000-0  00000+0 0  9998
2 37934   1.9950 344.8506 3810224 210.6287  76.4361  1.71595520 47225
1 37935U 11069C   19162.98481571 -.00000191  00000-0  72339-3 0  9995
2 37935  48.5954   4.7324 7070650 284.6896  11.8415  2.29405045 63114
1 37938U 11071A   19163.48104894 -.00000069  00000-0  00000+0 0  9993
2 37938  65.7633  40.4620 0014010 238.9962 304.6845  2.13087192 58795
1 37939U 11071B   19160.57889168 -.00000064  00000-0  00000+0 0  9990
2 37939  65.7556  44.3258 0074878 104.3918  77.8471  2.09024695 57613
1 37941U 11072A   19163.90074128  .00000251  00000-0  15674-4 0  9991
2 37941  97.5270  95.7603 0000176 283.7652 145.8426 15.17998035417755
1 37948U 11073A   19163.85257844 -.00000176  00000-0  10000-3 0  9995
2 37948  52.1672 302.2725 0058948 206.7757 151.4753  1.00256109 27712
1 37950U 11074A   19162.75431446 -.00000094 +00000-0 +00000-0 0  9994
2 37950 002.7524 084.0026 0004684 324.1488 195.1987 01.00379883027309
1 37951U 11074B   19163.81766123 -.00000055  00000-0  00000+0 0  9992
2 37951   2.4748 128.6163 0003529 305.6936 287.7171  1.00270828 27505
1 37952U 11074C   19162.39389439 -.00000169  00000-0  00000+0 0  9992
2 37952   5.3719  60.1612 0724770 129.5815  71.1346  0.89626291 24266
1 37956U 93036BPF 19163.44587130  .00000891  00000-0  16501-3 0  9997
2 37956  74.0463  77.1435 0044433  61.5024 299.0608 14.66280317454329
1 37957U 93036BPG 19158.49264787 +.00003578 +00000-0 +46046-3 0  9999
2 37957 074.0185 093.0815 0008502 343.4210 016.6687 14.81490267321884
1 37958U 93036BPH 19157.09530976  .00012772  00000-0  74123-3 0  9994
2 37958  74.0024 315.6603 0003363  36.7332 323.4091 15.12176444420625
1 37959U 93036BPJ 19160.83194537 +.00000274 +00000-0 +81896-4 0  9990
2 37959 074.0131 204.9828 0071149 204.0527 273.8723 14.46259971457462
1 37960U 93036BPK 19162.19400307  .00000341  00000-0  18099-3 0  9997
2 37960  74.0618 355.1324 0269772 216.9322 141.2973 14.00255422442523
1 37961U 93036BPL 19161.57332225 +.00000287 +00000-0 +91923-4 0  9999
2 37961 074.0482 258.3080 0053379 214.3774 145.3926 14.43287909456770
1 37962U 93036BPM 19162.85840045 +.00002635 +00000-0 +27049-3 0  9992
2 37962 074.0694 356.5374 0066594 251.8865 107.5056 14.89332100311007
1 37966U 93036BPR 19162.57635381  .00000652  00000-0  15790-3 0  9997
2 37966  73.9977 139.1002 0025928 216.7404 143.1983 14.54920891507364
1 37967U 93036BPS 19162.24786223 +.00000385 +00000-0 +15267-3 0  9996
2 37967 074.0214 125.8854 0190412 105.8350 256.3877 14.22516715308298
1 37968U 93036BPT 19160.65221613  .00000312  00000-0  47693-4 0  9996
2 37968  74.0095 282.9878 0132483 282.4761  76.1615 14.73136793513543
1 37971U 93036BPW 19162.42386530  .00000271  00000-0  11610-3 0  9990
2 37971  74.0047  72.8579 0092901  41.8289 318.9909 14.27197763499572
1 37973U 93036BPY 19162.82919892  .00000239  00000-0  94822-4 0  9990
2 37973  74.0355 345.5891 0041822 281.3393  78.3061 14.33612936493713
1 37974U 93036BPZ 19159.15222895 +.00001920 +00000-0 +80646-4 0  9990
2 37974 074.0145 321.5421 0078199 269.4920 089.7317 15.21610483257793
1 37975U 93036BQA 19163.39609735  .00000646  00000-0  21077-3 0  9990
2 37975  74.0221  55.2812 0183680 257.7885 100.2642 14.31702463520058
1 37977U 93036BQC 19159.98697147 +.00000954 +00000-0 +28435-3 0  9993
2 37977 073.9838 285.5836 0033627 245.4466 114.3185 14.44156453311210
1 37978U 93036BQD 19160.45431874  .00000709  00000-0  13259-3 0  9997
2 37978  74.0740  75.6531 0088224   6.8943 353.3415 14.64433655499556
1 37983U 93036BQJ 19160.23185002  .00002782  00000-0  36624-3 0  9992
2 37983  74.0086  10.5383 0021279  33.6009 326.6512 14.80531304522046
1 37984U 93036BQK 19152.02096125  .00006970  00000-0  48778-3 0  9994
2 37984  73.8783 270.8172 0032087 155.8401 204.4301 15.05032137499687
1 37985U 93036BQL 19163.07738830  .00000002  00000-0  10167-4 0  9990
2 37985  74.0255 302.5437 0022644 279.1448  80.7142 14.34769889490873
1 37986U 93036BQM 19162.60269132  .00001960  00000-0  36089-3 0  9997
2 37986  74.0115 146.6966 0008199  65.5132 294.6891 14.66277684476052
1 37988U 93036BQP 19162.76379488 +.00000289 +00000-0 +77871-4 0  9990
2 37988 074.0674 194.1430 0087785 132.1760 228.6900 14.50214224888402
1 37990U 93036BQR 19162.42085707  .00000951  00000-0  29151-3 0  9997
2 37990  74.0193 316.2942 0056719 262.0384  97.4333 14.42185167456962
1 37993U 93036BQU 19162.68103994  .00000342  00000-0  11351-3 0  9994
2 37993  74.0305 282.4984 0032596 235.3638 124.4443 14.41212331457857
1 37994U 93036BQV 19162.87425876 +.00000115 +00000-0 +49596-4 0  9993
2 37994 074.0380 319.4313 0025182 262.8262 097.0027 14.35034246429525
1 37995U 93036BQW 19161.42334888  .00001389  00000-0  17539-3 0  9991
2 37995  73.9810 310.5361 0035638 356.2782   3.8124 14.82572708904768
1 37996U 93036BQX 19162.28006454  .00001505  00000-0  10462-2 0  9999
2 37996  74.0764 273.4165 0301440 220.7923 137.0284 13.79972587906850
1 37997U 93036BQY 19157.21091043  .00001026  00000-0  32474-3 0  9991
2 37997  74.0148 348.4478 0047165 252.3929 107.2072 14.40766096518471
1 37998U 93036BQZ 19163.06071332  .00000164  00000-0  63419-4 0  9997
2 37998  74.0392 302.1951 0022121 243.3254 116.5635 14.37496873514868
1 38000U 93036BRB 19162.84478260  .00001450  00000-0  32516-3 0  9990
2 38000  74.0246 234.5605 0034881 149.3608 210.9604 14.57163883481614
1 38001U 93036BRC 19162.33831562 +.00000125 +00000-0 +30078-4 0  9993
2 38001 074.0120 038.0940 0084964 056.5221 062.8491 14.61565615398868
1 38004U 93036BRF 19162.88898698 +.00000982 +00000-0 +26878-3 0  9992
2 38004 074.0353 242.8581 0017856 153.3316 206.8766 14.48426162311567
1 38006U 93036BRH 19161.41284142 +.00000827 +00000-0 +36319-3 0  9994
2 38006 073.8596 076.9849 0105555 129.7075 231.3435 14.22217183491008
1 38011U 11076E   19163.77892162  .00000093  00000-0  18377-4 0  9992
2 38011  97.8964 241.5943 0001657  82.7014 277.4389 14.81956852405016
1 38012U 11076F   19163.73632524 -.00000006  00000-0  84391-5 0  9998
2 38012  98.1981 238.5173 0001381  95.2191 264.9169 14.58548896398624
1 38013U 11076G   19162.99707705  .00000379  00000-0  38940-4 0  9990
2 38013  98.0391 305.0724 0009329 132.9723 227.2281 14.96359233407963
1 38014U 11077A   19163.83909580  .00000135  00000-0  00000+0 0  9992
2 38014   0.0523 127.9809 0003517 294.6369 182.7952  1.00271445 27343
1 38015U 11077B   19163.45206115  .00098625 -27738-6  96247-3 0  9992
2 38015  23.6869 356.6823 6060559 125.0192 307.5214  4.05669177 78267
1 38016U 97051YC  19162.71559118  .00006248  00000-0  78439-3 0  9990
2 38016  86.3981 322.0043 0032772 135.8286 282.4987 14.81613159423056
1 38017U 97051YD  19161.99938886  .00000766  00000-0  38731-3 0  9993
2 38017  86.3487  63.7788 0210622  56.5758 305.5369 14.04035881433987
1 38019U 97051YF  19159.88405597  .00002625  00000-0  66994-3 0  9996
2 38019  86.3961  11.3600 0083467 192.2979 167.6190 14.48099675485587
1 38020U 97051YG  19162.34953143 +.00001595 +00000-0 +67794-3 0  9992
2 38020 086.3092 031.9197 0179811 294.6691 063.5863 14.16480195502352
1 38022U 97051YJ  19161.16521341  .00000609  00000-0  23294-3 0  9996
2 38022  86.2761 319.2777 0056694 201.8969 157.9801 14.28190867529843
1 38023U 97051YK  19162.91069292 +.00002635 +00000-0 +75189-3 0  9994
2 38023 086.4135 034.4902 0105672 303.1380 055.9714 14.41625504363371
1 38024U 97051YL  19161.48796456 +.00001756 +00000-0 +60147-3 0  9996
2 38024 086.4819 065.7509 0122116 004.6037 355.6249 14.31587409508863
1 38025U 97051YM  19161.58478438  .00001032  00000-0  42650-3 0  9991
2 38025  86.4967  99.6858 0159388 241.6444 244.1337 14.19289287521872
1 38028U 97051YQ  19160.68940679  .00000247  00000-0  71695-4 0  9994
2 38028  86.3266 305.6715 0032287  52.8287 307.5852 14.39996819488611
1 38030U 97051YS  19157.28651873  .00002985  00000-0  64690-3 0  9991
2 38030  86.3674 354.0385 0080167 121.7367 239.1686 14.55849199440409
1 38033U 97051YV  19160.42902454  .00003519  00000-0  37037-3 0  9997
2 38033  86.2771 220.9007 0017221 325.0565  34.9529 14.89000290904962
1 38038U 11079A   19163.75060389  .00000016  00000-0  19805-4 0  9992
2 38038  98.2399 209.8148 0001867  93.7428 266.3966 14.35500739391593
1 38039U 11079B   19163.43949383  .00000153  00000-0  16843-4 0  9999
2 38039  98.4452 105.1263 0181471 160.1803 200.6586 14.92365569406092
1 38040U 11080A   19163.02945375 -.00000104  00000-0 -37986-5 0  9995
2 38040  52.0006 257.4523 0000719 161.7087 249.7445 12.62265588345478
1 38041U 11080B   19163.40368769 -.00000105  00000-0 -69358-5 0  9993
2 38041  52.0057 257.1468 0000836 160.3992 272.9776 12.62262388345504
1 38042U 11080C   19163.10169903 -.00000096  00000-0  43776-4 0  9993
2 38042  52.0055 213.2831 0000270  78.2157   1.9495 12.62269758346206
1 38043U 11080D   19163.46298598 -.00000096  00000-0  44810-4 0  9996
2 38043  52.0093 302.4282 0000532 130.0359 272.9266 12.62265703344741
1 38044U 11080E   19163.45556852 -.00000090  00000-0  78972-4 0  9996
2 38044  51.9863 208.8437 0000241 122.3750   8.0551 12.62265479346233
1 38045U 11080F   19163.48608021 -.00000090  00000-0  74589-4 0  9996
2 38045  51.9875 209.1330 0001593 152.8796 355.4848 12.62263145346249
1 38046U 12001A   19163.89751757  .00000436  00000-0  22613-4 0  9995
2 38046  97.4538 237.6321 0004958  62.9316  25.7333 15.21263652412289
1 38049U 12002A   19163.87855190 -.00000367  00000-0  00000+0 0  9998
2 38049   1.2299  82.1355 0001284 152.7060  94.4265  1.00275887 27208
1 38050U 12002B   19159.21359528 +.00000133 +00000-0 +85087-4 0  9990
2 38050 023.9565 188.6236 7241409 111.7824 335.2394 02.29394699061811
1 38054U 93036BRL 19162.35298948  .00000600  00000-0  60430-3 0  9990
2 38054  73.9542 134.9355 0396905 213.8053 299.8332 13.49590909408160
1 38055U 93036BRM 19161.45575524 +.00000308 +00000-0 +70282-4 0  9991
2 38055 074.0186 088.0765 0090125 087.3751 030.2511 14.57702550451829
